,NG Location Name,NG Address,NG Address Line 1,NG City,NG ZIP,NG State,Geocoded_address,lat,lon
0,Timber Ridge At Talus,"100 Timber Ridge Way Ne Issaquah, WA 98027",100 Timber Ridge Way Ne,Issaquah,98027,WA,,,-122.0662026
1,Briarwood Health Center At Timber Ridge,"100 Timber Ridge Way NW Issaquah, WA 98027",100 Timber Ridge Way NW,Issaquah,98027,WA,"100, Timber Ridge Way Northwest, Talus, Issaquah, King County, Washington, 98027, United States",47.5310891,-122.0662026
2,Ear Nose Throat And Allergy Associates,"104 27th Ave SE Puyallup, WA 98374",104 27th Ave SE,Puyallup,98374,WA,"104, 27th Avenue Southeast, Puyallup, Pierce County, Washington, 98374, United States",47.16557470503147,-122.0662026
3,Hillside Surgery Center,"104 27th Ave SE Puyallup, WA 98374",104 27th Ave SE,Puyallup,98374,WA,"104, 27th Avenue Southeast, Puyallup, Pierce County, Washington, 98374, United States",47.16557470503147,-122.0662026
4,Seattle Home Health Care Service,"115 NE 100th St Seattle, WA 98125",115 NE 100th St,Seattle,98125,WA,"115, Northeast 100th Street, Maple Leaf, Seattle, King County, Washington, 98125, United States",47.70080635,-122.0662026
5,Peace Health Ketchikan Home Health,"126 Washington Street Ketchikan, AK 99901",126 Washington Street,Ketchikan,99901,AK,"126, Washington Street, Ketchikan, Ketchikan Gateway, Alaska, 99901, United States",55.349853,-122.0662026
6,Proliance Bone And Joint Urgent Care,"150 Andover Park W Tukwila, WA 98188",150 Andover Park W,Tukwila,98188,WA,"Proliance Bone & Joint Urgent Care, 150, Andover Park West, Tukwila, King County, Washington, 98188, United States",47.4586364,-122.0662026
7,Proliance Ortho Assoc Laboratory,"150 Andover Park W Tukwila, WA 98188",150 Andover Park W,Tukwila,98188,WA,"Proliance Bone & Joint Urgent Care, 150, Andover Park West, Tukwila, King County, Washington, 98188, United States",47.4586364,-122.0662026
8,Concept Therapy Harbor Square,"190 West Dayton Street Edmonds, WA 98020",190 West Dayton Street,Edmonds,98020,WA,"190, West Dayton Street, Edmonds, Snohomish County, Washington, 98020, United States",47.8093279,-122.0662026
9,AFWS Auburn,"200 Auburn Ave Auburn, WA 98002",200 Auburn Ave,Auburn,98002,WA,"200, Auburn Avenue, Downtown, Auburn, King County, Washington, 98002, United States",47.3092372,-122.0662026
10,Harbors Home Health,"201 7th St Hoquiam, WA 98550",201 7th St,Hoquiam,98550,WA,"201, 7th Street, Hoquiam, Grays Harbor County, Washington, 98550, United States",46.978477,-122.0662026
11,Southwest Seattle ASC,"275 SW 160th St Burien, WA 98166",275 SW 160th St,Burien,98166,WA,"275, Southwest 160th Street, Five Corners, Burien, King County, Washington, 98166, United States",47.459164200000004,-122.0662026
12,Tacoma General Hospital IP,"315 Martin Luther King Jr Way Tacoma, WA 98405",315 Martin Luther King Jr Way,Tacoma,98405,WA,"315, Martin Luther King Jr Way, Hilltop, Tacoma, Pierce County, Washington, 98405, United States",47.25999773199298,-122.0662026
13,Tacoma General Hospital OP,"315 Martin Luther King Jr Way Tacoma, WA 98405",315 Martin Luther King Jr Way,Tacoma,98405,WA,"315, Martin Luther King Jr Way, Hilltop, Tacoma, Pierce County, Washington, 98405, United States",47.25999773199298,-122.0662026
14,Eden Home Health,"316 E Mcleod Road Bellingham, WA 98226",316 E Mcleod Road,Bellingham,98226,WA,"316 McCleod Center, 316, East McLeod Road, Meridian Plaza Shopping Center, Bellingham, Whatcom County, Washington, 98226, United States",48.782930300000004,-122.0662026
15,Mary Bridge Childrens Hospital OP,"317 Martin Luther King Jr Way Tacoma, WA 98405",317 Martin Luther King Jr Way,Tacoma,98405,WA,"317, Martin Luther King Jr Way, Hilltop, Tacoma, Pierce County, Washington, 98405, United States",47.259979407991985,-122.0662026
16,Valley Wound Clinic,"400 S 43rd St Renton, WA 98055",400 S 43rd St,Renton,98055,WA,"Valley Medical Center, 400, South 43rd Street, Renton, King County, Washington, 98055, United States",47.443309400000004,-122.0662026
17,Valley Medical Center ER,"400 South 43rd St Renton, WA 98055",400 South 43rd St,Renton,98055,WA,"Valley Medical Center, 400, South 43rd Street, Renton, King County, Washington, 98055, United States",47.443309400000004,-122.0662026
18,Valley Medical Center IP,"400 South 43rd St Renton, WA 98055",400 South 43rd St,Renton,98055,WA,"Valley Medical Center, 400, South 43rd Street, Renton, King County, Washington, 98055, United States",47.443309400000004,-122.0662026
19,Valley Medical Ctr OP,"400 SW 43rd Renton, WA 98055",400 SW 43rd,Renton,98055,WA,,,-122.0662026
20,Kittitas Valley Comm Home Health,"401 E Mountain View Ave Ellensburg, WA 98926",401 E Mountain View Ave,Ellensburg,98926,WA,"401, East Mountain View Avenue, Ellensburg, Kittitas County, Washington, 98926, United States",46.98464506523107,-122.0662026
21,St Mary Medical Center IP,"401 West  Poplar Walla Walla, WA 99362",401 West  Poplar,Walla Walla,99362,WA,"Providence Saint Mary Medical Center, 401, West Poplar Street, Walla Walla, Walla Walla County, Washington, 99362, United States",46.06169505,-122.0662026
22,St Mary Home Health,"401 West Poplar Walla Walla, WA 99362",401 West Poplar,Walla Walla,99362,WA,"Providence Saint Mary Medical Center, 401, West Poplar Street, Walla Walla, Walla Walla County, Washington, 99362, United States",46.06169505,-122.0662026
23,Good Samaritan Hospital ER,"407 14th Ave SE Puyallup, WA 98371",407 14th Ave SE,Puyallup,98371,WA,"407, 14th Avenue Southeast, Puyallup, Pierce County, Washington, 98372, United States",47.178689420209295,-122.0662026
24,Good Samaritan Hospital IP,"407 14th Ave SE Puyallup, WA 98371",407 14th Ave SE,Puyallup,98371,WA,"407, 14th Avenue Southeast, Puyallup, Pierce County, Washington, 98372, United States",47.178689420209295,-122.0662026
25,Good Samaritan Hospital OP,"407 14th Ave SE Puyallup, WA 98371",407 14th Ave SE,Puyallup,98371,WA,"407, 14th Avenue Southeast, Puyallup, Pierce County, Washington, 98372, United States",47.178689420209295,-122.0662026
26,Advanced Post Acute,"414 17th St Se Auburn, WA 98002",414 17th St Se,Auburn,98002,WA,"414, 17th Street Southeast, South Auburn, Auburn, King County, Washington, 98002, United States",47.29333515,-122.0662026
27,Swedish Providence Cherry Hill ED,"500 17th Avenue Seattle, WA 98124",500 17th Avenue,Seattle,98124,WA,"500, 17th Avenue, Central District, Seattle, King County, Washington, 98122, United States",47.606298,-122.0662026
28,Swedish Providence Cherry Hill IP,"500 17th Avenue Seattle, WA 98124",500 17th Avenue,Seattle,98124,WA,"500, 17th Avenue, Central District, Seattle, King County, Washington, 98122, United States",47.606298,-122.0662026
29,Swedish Providence Cherry Hill OP,"500 17th Avenue Seattle, WA 98124",500 17th Avenue,Seattle,98124,WA,"500, 17th Avenue, Central District, Seattle, King County, Washington, 98122, United States",47.606298,-122.0662026
30,Bellevue ENT CT Issaquah,"510 8th Ave NE Issaquah, WA 98029",510 8th Ave NE,Issaquah,98029,WA,"Proliance Highlands Surgery Center, 510, 8th Avenue Northeast, Discovery West, Issaquah, King County, Washington, 98029, United States",47.53629465,-122.0662026
31,Bellevue ENT Issaquah,"510 8th Ave NE Issaquah, WA 98029",510 8th Ave NE,Issaquah,98029,WA,"Proliance Highlands Surgery Center, 510, 8th Avenue Northeast, Discovery West, Issaquah, King County, Washington, 98029, United States",47.53629465,-122.0662026
32,Bellevue ENT Issaquah Hearing Aid Center,"510 8th Ave NE Issaquah, WA 98029",510 8th Ave NE,Issaquah,98029,WA,"Proliance Highlands Surgery Center, 510, 8th Avenue Northeast, Discovery West, Issaquah, King County, Washington, 98029, United States",47.53629465,-122.0662026
33,Lake Washington Facial Plastics,"510 8th Ave NE Issaquah, WA 98029",510 8th Ave NE,Issaquah,98029,WA,"Proliance Highlands Surgery Center, 510, 8th Avenue Northeast, Discovery West, Issaquah, King County, Washington, 98029, United States",47.53629465,-122.0662026
34,PAIC Issaquah,"510 8th Ave NE Issaquah, WA 98029",510 8th Ave NE,Issaquah,98029,WA,"Proliance Highlands Surgery Center, 510, 8th Avenue Northeast, Discovery West, Issaquah, King County, Washington, 98029, United States",47.53629465,-122.0662026
35,Proliance Highlands Surgery Center,"510 8th Ave NE Issaquah, WA 98029",510 8th Ave NE,Issaquah,98029,WA,"Proliance Highlands Surgery Center, 510, 8th Avenue Northeast, Discovery West, Issaquah, King County, Washington, 98029, United States",47.53629465,-122.0662026
36,Proliance Sports Therapy Of Issaquah,"510 8th Ave NE Issaquah, WA 98029",510 8th Ave NE,Issaquah,98029,WA,"Proliance Highlands Surgery Center, 510, 8th Avenue Northeast, Discovery West, Issaquah, King County, Washington, 98029, United States",47.53629465,-122.0662026
37,Proliance Ortho Sports Med Iss,"510 8th Ave NE Ste 200 Issaquah, WA 98029",510 8th Ave NE Ste 200,Issaquah,98029,WA,,,-122.0662026
38,Minor And James Surgery Center,"515 Minor Ave Ste 130 Seattle, WA 98104",515 Minor Ave Ste 130,Seattle,98104,WA,,,-122.0662026
39,Proliance Minor Ave Ste 140,"515 Minor Ave Ste 140 Seattle, WA 98104",515 Minor Ave Ste 140,Seattle,98104,WA,,,-122.0662026
40,Proliance Minor Ave Ste 150,"515 Minor Ave Ste 150 Seattle, WA 98104",515 Minor Ave Ste 150,Seattle,98104,WA,,,-122.0662026
41,Minor And James CT,"515 Minor Ave Ste 200 Seattle, WA 98104",515 Minor Ave Ste 200,Seattle,98104,WA,,,-122.0662026
42,Proliance Minor Ave Ste 200,"515 Minor Ave Ste 200 Seattle, WA 98104",515 Minor Ave Ste 200,Seattle,98104,WA,,,-122.0662026
43,OPA Minor And James,"515 Minor Ave Ste 240 Seattle, WA 98104",515 Minor Ave Ste 240,Seattle,98104,WA,,,-122.0662026
44,Lourdes Medical Center Inpatient,"520 N 4th Ave Pasco, WA 99301",520 N 4th Ave,Pasco,99301,WA,"Lourdes Medical Center, 520, North 4th Avenue, Downtown Pasco, Pasco, Franklin County, Washington, 99301, United States",46.2351094,-122.0662026
45,Lourdes Medical Center Outpatient,"520 N 4th Ave Pasco, WA 99301",520 N 4th Ave,Pasco,99301,WA,"Lourdes Medical Center, 520, North 4th Avenue, Downtown Pasco, Pasco, Franklin County, Washington, 99301, United States",46.2351094,-122.0662026
46,Swedish Cherry Hill ER,"540 16th Ave Seattle, WA 98122",540 16th Ave,Seattle,98122,WA,"Emergency, 540, 16th Avenue, Little Saigon, Central District, Seattle, King County, Washington, 98122, United States",47.6072418,-122.0662026
47,Swedish Cherry Hill IP,"550 17th Ave Seattle, WA 98122",550 17th Ave,Seattle,98122,WA,"James Tower, 550, 17th Avenue, Central District, Seattle, King County, Washington, 98122, United States",47.607002300000005,-122.0662026
48,Swedish Cherry Hill OP,"550 17th Ave Seattle, WA 98122",550 17th Ave,Seattle,98122,WA,"James Tower, 550, 17th Avenue, Central District, Seattle, King County, Washington, 98122, United States",47.607002300000005,-122.0662026
49,Swedish Cherry Hill,"550 17th Ave Ste 500 Seattle, WA 98122",550 17th Ave Ste 500,Seattle,98122,WA,,,-122.0662026
50,Swedish Cherry Hill Neuro Otology,"550 17th Ave Ste 540 Seattle, WA 98122",550 17th Ave Ste 540,Seattle,98122,WA,,,-122.0662026
51,Seattle BENT,"600 Broadway Seattle, WA 98122",600 Broadway,Seattle,98122,WA,"Foot & Ankle Center of Washington, 600, Broadway, First Hill, Seattle, King County, Washington, 98122, United States",47.6077763,-122.0662026
52,Swedish ENT,"600 Broadway Seattle, WA 98122",600 Broadway,Seattle,98122,WA,"Foot & Ankle Center of Washington, 600, Broadway, First Hill, Seattle, King County, Washington, 98122, United States",47.6077763,-122.0662026
53,OPA Main,"601 Broadway Seattle, WA 98122",601 Broadway,Seattle,98122,WA,"Swedish Orthopedic Institute, 601, Broadway, First Hill, Seattle, King County, Washington, 98122, United States",47.6074792,-122.0662026
54,Swedish Orthopedic Institute IP,"601 Broadway Seattle, WA 98122",601 Broadway,Seattle,98122,WA,"Swedish Orthopedic Institute, 601, Broadway, First Hill, Seattle, King County, Washington, 98122, United States",47.6074792,-122.0662026
55,Swedish Orthopedic Institute OP,"601 Broadway Seattle, WA 98122",601 Broadway,Seattle,98122,WA,"Swedish Orthopedic Institute, 601, Broadway, First Hill, Seattle, King County, Washington, 98122, United States",47.6074792,-122.0662026
56,Swedish Main,"747 Broadway Seattle, WA 98122",747 Broadway,Seattle,98122,WA,"747, Broadway, First Hill, Seattle, King County, Washington, 98122, United States",47.6071132,-122.0662026
57,Swedish Medical Cntr First Hill ER,"747 Broadway Seattle, WA 98122",747 Broadway,Seattle,98122,WA,"747, Broadway, First Hill, Seattle, King County, Washington, 98122, United States",47.6071132,-122.0662026
58,Swedish Medical Cntr First Hill IP,"747 Broadway Seattle, WA 98122",747 Broadway,Seattle,98122,WA,"747, Broadway, First Hill, Seattle, King County, Washington, 98122, United States",47.6071132,-122.0662026
59,Swedish Medical Cntr First Hill OP,"747 Broadway Seattle, WA 98122",747 Broadway,Seattle,98122,WA,"747, Broadway, First Hill, Seattle, King County, Washington, 98122, United States",47.6071132,-122.0662026
60,Swedish Issaquah Highlands ER,"751 Ne Blakely Dr Issaquah, WA 98029",751 Ne Blakely Dr,Issaquah,98029,WA,"751, Northeast Blakely Drive, Issaquah, King County, Washington, 98029, United States",47.5357306,-122.0662026
61,Swedish Issaquah Highlands IP,"751 Ne Blakely Dr Issaquah, WA 98029",751 Ne Blakely Dr,Issaquah,98029,WA,"751, Northeast Blakely Drive, Issaquah, King County, Washington, 98029, United States",47.5357306,-122.0662026
62,Swedish Issaquah Highlands OP,"751 Ne Blakely Dr Issaquah, WA 98029",751 Ne Blakely Dr,Issaquah,98029,WA,"751, Northeast Blakely Drive, Issaquah, King County, Washington, 98029, United States",47.5357306,-122.0662026
63,WHSI Issaquah,"751 Ne Blakely Dr Issaquah, WA 98029",751 Ne Blakely Dr,Issaquah,98029,WA,"751, Northeast Blakely Drive, Issaquah, King County, Washington, 98029, United States",47.5357306,-122.0662026
64,OPA Issaquah Highlands,"751 Ne Blakely Dr Ste 4020 Issaquah, WA 98029",751 Ne Blakely Dr Ste 4020,Issaquah,98029,WA,,,-122.0662026
65,PRO Swedish Issaquah Highlands,"751 Ne Blakely Dr Ste 4020 Issaquah, WA 98029",751 Ne Blakely Dr Ste 4020,Issaquah,98029,WA,,,-122.0662026
66,SNS Issaquah Highlands,"751 Ne Blakely Dr Ste 4020 Issaquah, WA 98029",751 Ne Blakely Dr Ste 4020,Issaquah,98029,WA,,,-122.0662026
67,OPA Sequim,"777 N 5th Ave Sequim, WA 98382",777 N 5th Ave,Sequim,98382,WA,"777, North 5th Avenue, Sequim, Clallam County, Washington, 98382, United States",48.088208891772965,-122.0662026
68,Sequim EDOC,"777 N 5th Ave Sequim, WA 98382",777 N 5th Ave,Sequim,98382,WA,"777, North 5th Avenue, Sequim, Clallam County, Washington, 98382, United States",48.088208891772965,-122.0662026
69,Okanogan Regional H H H,"800 South Jasmine Omak, WA 98841",800 South Jasmine,Omak,98841,WA,,,-122.0662026
70,OPA Broadway,"801 Broadway Ste 617 Seattle, WA 98122",801 Broadway Ste 617,Seattle,98122,WA,,,-122.0662026
71,Seattle Neuro And Spine Surgery,"801 Broadway Ste 617 Seattle, WA 98122",801 Broadway Ste 617,Seattle,98122,WA,,,-122.0662026
72,Ballard Care,"820 Nw 95th St Seattle, WA 98117",820 Nw 95th St,Seattle,98117,WA,"Genesis HealthCare - Ballard Center, 820, Northwest 95th Street, Crown Hill, Greenwood, Seattle, King County, Washington, 98117, United States",47.69846245,-122.0662026
73,JGH Home Health,"834 Sheridan Street Port Townsend, WA 98368",834 Sheridan Street,Port Townsend,98368,WA,"Jefferson Healthcare Hospital, 834, Sheridan Street, Sea Breeze Mobile Home Park, Port Townsend, Jefferson County, Washington, 98368, United States",48.106000699999996,-122.0662026
74,Kadlec Medical Center Emergency,"888 Swift Blvd Richland, WA 99352",888 Swift Blvd,Richland,99352,WA,"888, Swift Boulevard, Richland, Benton County, Washington, 99352, United States",46.2809089,-122.0662026
75,Kadlec Medical Center Inpatient,"888 Swift Blvd Richland, WA 99352",888 Swift Blvd,Richland,99352,WA,"888, Swift Boulevard, Richland, Benton County, Washington, 99352, United States",46.2809089,-122.0662026
76,Kadlec Medical Center Outpatient,"888 Swift Blvd Richland, WA 99352",888 Swift Blvd,Richland,99352,WA,"888, Swift Boulevard, Richland, Benton County, Washington, 99352, United States",46.2809089,-122.0662026
77,Assured Home Health Renton,"900 SW 16TH ST Renton, WA 98057",900 SW 16TH ST,Renton,98057,WA,"South 405 Place, 900, Southwest 16th Street, Renton, King County, Washington, 98057, United States",47.46647675,-122.0662026
78,Seattle Surgery Cntr Columbus Pavillion,"900 Terry Ave 4th Floor Seattle, WA 98104",900 Terry Ave 4th Floor,Seattle,98104,WA,,,-122.0662026
79,OPA MRI,"900 Terry Suite 100 Seattle, WA 98104",900 Terry Suite 100,Seattle,98104,WA,,,-122.0662026
80,ProOrtho OIL Cabrini,"901 Boren Ave Ste 900 Seattle, WA 98104",901 Boren Ave Ste 900,Seattle,98104,WA,,,-122.0662026
81,Alpha Nursing And Services,"909 SE Everett Mall Way Everett, WA 98208",909 SE Everett Mall Way,Everett,98208,WA,"909, Southeast Everett Mall Way, Cascade View, Everett, Snohomish County, Washington, 98208, United States",47.91063492638353,-122.0662026
82,Providence Pacifc,"916 Pacific Ave Everett, WA 98201",916 Pacific Ave,Everett,98201,WA,"916, Pacific Avenue, Port Gardner, Everett, Snohomish County, Washington, 98201, United States",47.9747931,-122.0662026
83,Pacific Regent,"919 109th Ave NE Bellevue, WA 98004",919 109th Ave NE,Bellevue,98004,WA,"919, 109th Avenue Northeast, Bellevue, King County, Washington, 98004, United States",47.61852159183674,-122.0662026
84,Rainier Rehab,"920 12th Ave Se Puyallup, WA 98372",920 12th Ave Se,Puyallup,98372,WA,"920, 12th Avenue Southeast, Meeker, Puyallup, Pierce County, Washington, 98372, United States",47.18079383670465,-122.0662026
85,Virginia Mason Hospital,"925 Seneca St Seattle, WA 98101",925 Seneca St,Seattle,98101,WA,"Central Pavilion, 925, Seneca Street, Central Business District, First Hill, Seattle, King County, Washington, 98101, United States",47.6099515,-122.0662026
86,PSSE Richland,"948 Stevens Drive Suite A Richland, WA 99352",948 Stevens Drive Suite A,Richland,99352,WA,NULL,L,-122.0662026
87,SNO 20th St,"1017 20th St Anacortes, WA 98221",1017 20th St,Anacortes,98221,WA,"1017, 20th Street, Anacortes, Skagit County, Washington, 98221, United States",48.505916150000004,-122.0662026
88,SNO PT 20th St,"1017 20th St Anacortes, WA 98221",1017 20th St,Anacortes,98221,WA,"1017, 20th Street, Anacortes, Skagit County, Washington, 98221, United States",48.505916150000004,-122.0662026
89,Mill Creek Family Practice,"1025 153rd St SE Ste 200 Mill Creek, WA 98012",1025 153rd St SE Ste 200,Mill Creek,98012,WA,,,-122.0662026
90,Overlake Hospital,"1035 116th Avenue NE Bellevue, WA 98004",1035 116th Avenue NE,Bellevue,98004,WA,"Overlake Medical Center, 1035, 116th Avenue Northeast, Midlakes, Bellevue, King County, Washington, 98004, United States",47.6211869,-122.0662026
91,Overlake Medical Center IP,"1035 116th Avenue NE Bellevue, WA 98004",1035 116th Avenue NE,Bellevue,98004,WA,"Overlake Medical Center, 1035, 116th Avenue Northeast, Midlakes, Bellevue, King County, Washington, 98004, United States",47.6211869,-122.0662026
92,Overlake Medical Center OP,"1035 116th Avenue NE Bellevue, WA 98004",1035 116th Avenue NE,Bellevue,98004,WA,"Overlake Medical Center, 1035, 116th Avenue Northeast, Midlakes, Bellevue, King County, Washington, 98004, United States",47.6211869,-122.0662026
93,Tri-City Regional Surgery Center,"1096 Goethals Dr Richland, WA 99352",1096 Goethals Dr,Richland,99352,WA,"1096, Goethals Drive, Richland, Benton County, Washington, 99352, United States",46.28184901088497,-122.0662026
94,Virginia Mason Inpatient,"1100 9th Ave Seattle, WA 98101",1100 9th Ave,Seattle,98101,WA,"Virginia Mason Hospital & Seattle Medical Center, 1100, 9th Avenue, Central Business District, First Hill, Seattle, King County, Washington, 98101, United States",47.610168099999996,-122.0662026
95,Virginia Mason Outpatient,"1100 9th Ave Seattle, WA 98101",1100 9th Ave,Seattle,98101,WA,"Virginia Mason Hospital & Seattle Medical Center, 1100, 9th Avenue, Central Business District, First Hill, Seattle, King County, Washington, 98101, United States",47.610168099999996,-122.0662026
96,Elite Home Health And Hospice,"1100 Highland Ave Clarkston, WA 99403",1100 Highland Ave,Clarkston,99403,WA,"Highland Avenue, Clarkston, Asotin County, Washington, 99403, United States",46.4036283,-122.0662026
97,Everett ASC,"1100 Pacific Ave Everett, WA 98201",1100 Pacific Ave,Everett,98201,WA,"1100, Pacific Avenue, Port Gardner, Everett, Snohomish County, Washington, 98201, United States",47.976356,-122.0662026
98,Everett Bone And Joint,"1100 Pacific Ave Suite 300 Everett, WA 98201",1100 Pacific Ave Suite 300,Everett,98201,WA,,,-122.0662026
99,Everett Orthopedic Surgery Center,"1100 Pacific Avenue Everett, WA 98201",1100 Pacific Avenue,Everett,98201,WA,"1100, Pacific Avenue, Port Gardner, Everett, Snohomish County, Washington, 98201, United States",47.976356,-122.0662026
100,Everett MRI,"1100 Pacific Everett, WA 98201",1100 Pacific,Everett,98201,WA,"1100, Pacific Avenue, Port Gardner, Everett, Snohomish County, Washington, 98201, United States",47.976356,-122.0662026
101,First Hill Surgery Center,"1101 Madison St Seattle, WA 98104",1101 Madison St,Seattle,98104,WA,"The Seattle Rhinoplasty Center, 1101, Madison Street, First Hill, Seattle, King County, Washington, 98104, United States",47.6091718,-122.0662026
102,Swedish First Hill Pediatric Specialist,"1101 Madison St Seattle, WA 98104",1101 Madison St,Seattle,98104,WA,"The Seattle Rhinoplasty Center, 1101, Madison Street, First Hill, Seattle, King County, Washington, 98104, United States",47.6091718,-122.0662026
103,Tacoma Ambulatory Surgery Ctr,"1112 6th Ave Tacoma, WA 98405",1112 6th Ave,Tacoma,98405,WA,"1112, 6th Avenue, Hilltop, Central Tacoma, Tacoma, Pierce County, Washington, 98405, United States",47.25703528571429,-122.0662026
104,Overlake Surgery Center,"1135 116th Ave NE Bellevue, WA 98004",1135 116th Ave NE,Bellevue,98004,WA,"1135, 116th Avenue Northeast, Midlakes, Bellevue, King County, Washington, 98004, United States",47.621201666666664,-122.0662026
105,Proliance Ortho Sports Med Tower,"1135 116th Ave NE Suite 510 Bellevue, WA 98004",1135 116th Ave NE Suite 510,Bellevue,98004,WA,,,-122.0662026
106,Proliance Sports Therapy Of Bellevue,"1200 112th Ave NE Bellevue, WA 98004",1200 112th Ave NE,Bellevue,98004,WA,"1200, 112th Avenue Northeast, Bellevue, King County, Washington, 98004, United States",47.621161,-122.0662026
107,Island Hospital IP OR,"1211 24th Anacortes, WA 98221",1211 24th,Anacortes,98221,WA,"Island Hospital, 1211, 24th Street, Anacortes, Skagit County, Washington, 98221, United States",48.502100850000005,-122.0662026
108,Island Hospital OP OR,"1211 24th Anacortes, WA 98221",1211 24th,Anacortes,98221,WA,"Island Hospital, 1211, 24th Street, Anacortes, Skagit County, Washington, 98221, United States",48.502100850000005,-122.0662026
109,Island Hospital Home Health,"1211 24th St Anacortes, WA 98221",1211 24th St,Anacortes,98221,WA,"Island Hospital, 1211, 24th Street, Anacortes, Skagit County, Washington, 98221, United States",48.502100850000005,-122.0662026
110,Proliance Sports Therapy Of Bellevue Pav,"1231 116TH AVE NE Bellevue, WA 98004",1231 116TH AVE NE,Bellevue,98004,WA,"Ridgway Face & Aesthetic Center, 1231, 116th Avenue Northeast, Midlakes, Bellevue, King County, Washington, 98004, United States",47.6209064,-122.0662026
111,LWFP - Bellevue,"1231 116th Ave NE Bellevue, WA 98004",1231 116th Ave NE,Bellevue,98004,WA,"Ridgway Face & Aesthetic Center, 1231, 116th Avenue Northeast, Midlakes, Bellevue, King County, Washington, 98004, United States",47.6209064,-122.0662026
112,Proliance Eastside Surgical Specialists,"1231 116th Ave NE Bellevue, WA 98004",1231 116th Ave NE,Bellevue,98004,WA,"Ridgway Face & Aesthetic Center, 1231, 116th Avenue Northeast, Midlakes, Bellevue, King County, Washington, 98004, United States",47.6209064,-122.0662026
113,Bellevue CT,"1231 116th Ave Ne Bellevue, WA 98004",1231 116th Ave Ne,Bellevue,98004,WA,"Ridgway Face & Aesthetic Center, 1231, 116th Avenue Northeast, Midlakes, Bellevue, King County, Washington, 98004, United States",47.6209064,-122.0662026
114,Bellevue ENT,"1231 116th Ave Ne Bellevue, WA 98004",1231 116th Ave Ne,Bellevue,98004,WA,"Ridgway Face & Aesthetic Center, 1231, 116th Avenue Northeast, Midlakes, Bellevue, King County, Washington, 98004, United States",47.6209064,-122.0662026
115,Bellevue Hearing Aid Center,"1231 116th Ave Ne Bellevue, WA 98004",1231 116th Ave Ne,Bellevue,98004,WA,"Ridgway Face & Aesthetic Center, 1231, 116th Avenue Northeast, Midlakes, Bellevue, King County, Washington, 98004, United States",47.6209064,-122.0662026
116,Proliance Ortho Sports Med Pavilion,"1231 116th Ave Ne Ste 750 Bellevue, WA 98004",1231 116th Ave Ne Ste 750,Bellevue,98004,WA,,,-122.0662026
117,Eastside Surgery Center,"1301 4th Ave Nw Ste 201 Issaquah, WA 98027",1301 4th Ave Nw Ste 201,Issaquah,98027,WA,,,-122.0662026
118,Eastside Endoscopy Center Issaquah,"1301 4th Avenue NW Ste 301 Issaquah, WA 98027",1301 4th Avenue NW Ste 301,Issaquah,98027,WA,,,-122.0662026
119,Heaston And Thompson Vision Clinic,"1321 Aaron DR Richland, WA 99352",1321 Aaron DR,Richland,99352,WA,"1321, Aaron Drive, Richland, Benton County, Washington, 99352, United States",46.26023032928061,-122.0662026
120,Providence General Medical Center IP,"1321 Colby Ave Everett, WA 98201",1321 Colby Ave,Everett,98201,WA,"1321, Colby Avenue, Northwest Everett, Everett, Snohomish County, Washington, 98201, United States",48.00002266551552,-122.0662026
121,Providence General Medical Center OP,"1321 Colby Ave Everett, WA 98201",1321 Colby Ave,Everett,98201,WA,"1321, Colby Avenue, Northwest Everett, Everett, Snohomish County, Washington, 98201, United States",48.00002266551552,-122.0662026
122,Skagit Northwest PT And OT,"1401 South LaVenture Mount Vernon, WA 98274",1401 South LaVenture,Mount Vernon,98274,WA,"1401, South Laventure Road, Mount Vernon, Skagit County, Washington, 98274, United States",48.41136495,-122.0662026
123,SNO ASC LaVenture,"1401 South LaVenture Mount Vernon, WA 98274",1401 South LaVenture,Mount Vernon,98274,WA,"1401, South Laventure Road, Mount Vernon, Skagit County, Washington, 98274, United States",48.41136495,-122.0662026
124,SNO LaVenture,"1401 South LaVenture Mount Vernon, WA 98274",1401 South LaVenture,Mount Vernon,98274,WA,"1401, South Laventure Road, Mount Vernon, Skagit County, Washington, 98274, United States",48.41136495,-122.0662026
125,Skagit Valley Hospital IP,"1415 E Kincaid Mount Vernon, WA 98274",1415 E Kincaid,Mount Vernon,98274,WA,"East Kincaid Street, Mount Vernon, Skagit County, Washington, 98273, United States",48.4174667,-122.0662026
126,Skagit Valley Hospital OP,"1415 E Kincaid Mount Vernon, WA 98274",1415 E Kincaid,Mount Vernon,98274,WA,"East Kincaid Street, Mount Vernon, Skagit County, Washington, 98273, United States",48.4174667,-122.0662026
127,Therapy Solutions,"1455 Columbia Park Trail Richland, WA 99352",1455 Columbia Park Trail,Richland,99352,WA,"Columbia Park Trail, Richland, Benton County, Washington, 99352, United States",46.2448736,-122.0662026
128,SNO ASC Continental,"1500 Continental Pl Mount Vernon, WA 98273",1500 Continental Pl,Mount Vernon,98273,WA,"Skagit Northwest Orthopedics, 1500, Continental Place, Mount Vernon, Skagit County, Washington, 98273, United States",48.4343896,-122.0662026
129,SNO CONT MRI,"1500 Continental Pl Mount Vernon, WA 98273",1500 Continental Pl,Mount Vernon,98273,WA,"Skagit Northwest Orthopedics, 1500, Continental Place, Mount Vernon, Skagit County, Washington, 98273, United States",48.4343896,-122.0662026
130,SNO Continental,"1500 Continental Pl Mount Vernon, WA 98273",1500 Continental Pl,Mount Vernon,98273,WA,"Skagit Northwest Orthopedics, 1500, Continental Place, Mount Vernon, Skagit County, Washington, 98273, United States",48.4343896,-122.0662026
131,SNO PT Continental,"1500 Continental Pl Mount Vernon, WA 98273",1500 Continental Pl,Mount Vernon,98273,WA,"Skagit Northwest Orthopedics, 1500, Continental Place, Mount Vernon, Skagit County, Washington, 98273, United States",48.4343896,-122.0662026
132,Northwest Hospital Facility,"1550 N 115th St Seattle, WA 98133",1550 N 115th St,Seattle,98133,WA,"1550, North 115th Street, Haller Lake, Seattle, King County, Washington, 98133, United States",47.7151277,-122.0662026
133,Northwest Hospital IP,"1550 N 115th St Seattle, WA 98133",1550 N 115th St,Seattle,98133,WA,"1550, North 115th Street, Haller Lake, Seattle, King County, Washington, 98133, United States",47.7151277,-122.0662026
134,Northwest Hospital OP,"1550 N 115th St Seattle, WA 98133",1550 N 115th St,Seattle,98133,WA,"1550, North 115th Street, Haller Lake, Seattle, King County, Washington, 98133, United States",47.7151277,-122.0662026
135,University Of Washington Northwest Fac,"1550 N 115th St Seattle, WA 98133",1550 N 115th St,Seattle,98133,WA,"1550, North 115th Street, Haller Lake, Seattle, King County, Washington, 98133, United States",47.7151277,-122.0662026
136,University Of Washington Northwest IP,"1550 N 115th St Seattle, WA 98133",1550 N 115th St,Seattle,98133,WA,"1550, North 115th Street, Haller Lake, Seattle, King County, Washington, 98133, United States",47.7151277,-122.0662026
137,University Of Washington Northwest OP,"1550 N 115th St Seattle, WA 98133",1550 N 115th St,Seattle,98133,WA,"1550, North 115th Street, Haller Lake, Seattle, King County, Washington, 98133, United States",47.7151277,-122.0662026
138,OPA Cherry Hill,"1600 E. Jefferson Tower Seattle, WA 98122",1600 E. Jefferson Tower,Seattle,98122,WA,NULL,L,-122.0662026
139,Proliance Ortho Assoc Lakeland Hills,"1620 Lake Tapps Parkway SE Auburn, WA 98092",1620 Lake Tapps Parkway SE,Auburn,98092,WA,"1620, Lake Tapps Parkway Southeast, Lakeland Hills, Auburn, Pierce County, Washington, 98092, United States",47.244836750000005,-122.0662026
140,SSO HSDC,"1625 19th Ave Seattle, WA 98122",1625 19th Ave,Seattle,98122,WA,"1625, 19th Avenue, Madison Valley, Central District, Seattle, King County, Washington, 98122, United States",47.6161752,-122.0662026
141,Veterans Administration Seattle,"1660 S Columbian Way Seattle, WA 98108",1660 S Columbian Way,Seattle,98108,WA,"1660, South Columbian Way, South Seattle, Seattle, King County, Washington, 98108, United States",47.5629527,-122.0662026
142,St Joseph Hospital IP,"1717 S J Street Tacoma, WA 98405",1717 S J Street,Tacoma,98405,WA,"Saint Joseph Medical Center, 1717, South J Street, McCarver Neighborhood, Tacoma, Pierce County, Washington, 98405, United States",47.2454805,-122.0662026
143,St Joseph Hospital OP,"1717 S J Street Tacoma, WA 98405",1717 S J Street,Tacoma,98405,WA,"Saint Joseph Medical Center, 1717, South J Street, McCarver Neighborhood, Tacoma, Pierce County, Washington, 98405, United States",47.2454805,-122.0662026
144,Intrepid USA Healthcare Services,"1718 W Broadway Spokane, WA 99201",1718 W Broadway,Spokane,99201,WA,NULL,L,-122.0662026
145,Puget Sound Imaging,"1724 W Union Tacoma, WA 98405",1724 W Union,Tacoma,98405,WA,,,-122.0662026
146,Puget Sound Orthopaedic Tacoma,"1724 W Union Tacoma, WA 98405",1724 W Union,Tacoma,98405,WA,,,-122.0662026
147,The Retina Surgery Center,"1750 112th Ave NE Bellevue, WA 98004",1750 112th Ave NE,Bellevue,98004,WA,"1750, 112th Avenue Northeast, Ashwood, Bellevue, King County, Washington, 98004, United States",47.62627313170115,-122.0662026
148,Proliance Eastside ENT Bell CT,"1800 116th Ave NE Bellevue, WA 98004",1800 116th Ave NE,Bellevue,98004,WA,"1800, 116th Avenue Northeast, Northup, Bellevue, King County, Washington, 98004, United States",47.62646077363897,-122.0662026
149,Proliance Eastside ENT Bellevue,"1800 116th Ave NE Bellevue, WA 98004",1800 116th Ave NE,Bellevue,98004,WA,"1800, 116th Avenue Northeast, Northup, Bellevue, King County, Washington, 98004, United States",47.62646077363897,-122.0662026
150,WHSB Bellevue,"1810 116th Ave Ne Ste D4 Bellevue, WA 98004",1810 116th Ave Ne Ste D4,Bellevue,98004,WA,,,-122.0662026
151,Envision Home Health of Washington LLC,"1818 S Union Street Tacoma, WA 98405",1818 S Union Street,Tacoma,98405,WA,,,-122.0662026
152,Allenmore Hospital IP,"1901 S Union Tacoma, WA 98405",1901 S Union,Tacoma,98405,WA,,,-122.0662026
153,Allenmore Hospital OP,"1901 S Union Tacoma, WA 98405",1901 S Union,Tacoma,98405,WA,,,-122.0662026
154,University Of Washington Medical Center,"1959 NE Pacific St Seattle, WA 98195",1959 NE Pacific St,Seattle,98195,WA,"University of Washington Medical Center - Montlake, 1959, Northeast Pacific Street, South Campus, University District, Seattle, King County, Washington, 98195, United States",47.649411549999996,-122.0662026
155,Swedish Issaquah Office Loc,"2005 NW Sammamish RD Issaquah, WA 98027",2005 NW Sammamish RD,Issaquah,98027,WA,"2005, Northwest Sammamish Road, Issaquah, King County, Washington, 98029, United States",47.55200075694076,-122.0662026
156,OPA Issaquah,"2005 NW Sammamish Road Issaquah, WA 98027",2005 NW Sammamish Road,Issaquah,98027,WA,"2005, Northwest Sammamish Road, Issaquah, King County, Washington, 98029, United States",47.55200075694076,-122.0662026
157,Bellingham Ambulatory Surgery Center,"2075 Barkley Blvd Ste 101 Bellingham, WA 98226",2075 Barkley Blvd Ste 101,Bellingham,98226,WA,,,-122.0662026
158,Assured Home Health Olympia,"2102 Carriage Dr Sw Olympia, WA 98502",2102 Carriage Dr Sw,Olympia,98502,WA,,,-122.0662026
159,Wallingford Edmonds Ortho Center,"2409 N 45TH ST Seattle, WA 98103",2409 N 45TH ST,Seattle,98103,WA,"Seattle Orthopedic Center, 2409, North 45th Street, Wallingford, Seattle, King County, Washington, 98103, United States",47.6611649,-122.0662026
160,Seattle Orthopedic Center,"2409 N 45th St Seattle, WA 98103",2409 N 45th St,Seattle,98103,WA,"Seattle Orthopedic Center, 2409, North 45th Street, Wallingford, Seattle, King County, Washington, 98103, United States",47.6611649,-122.0662026
161,Seattle Orthopedic Center OPA,"2409 N 45th St Seattle, WA 98103",2409 N 45th St,Seattle,98103,WA,"Seattle Orthopedic Center, 2409, North 45th Street, Wallingford, Seattle, King County, Washington, 98103, United States",47.6611649,-122.0662026
162,Seattle Orthopedic Center PT,"2409 N 45th St Seattle, WA 98103",2409 N 45th St,Seattle,98103,WA,"Seattle Orthopedic Center, 2409, North 45th Street, Wallingford, Seattle, King County, Washington, 98103, United States",47.6611649,-122.0662026
163,Seattle Orthopedic Cntr,"2409 N 45th St Seattle, WA 98103",2409 N 45th St,Seattle,98103,WA,"Seattle Orthopedic Center, 2409, North 45th Street, Wallingford, Seattle, King County, Washington, 98103, United States",47.6611649,-122.0662026
164,Seattle Orthopedic Surgery Center,"2409 N 45th St Seattle, WA 98103",2409 N 45th St,Seattle,98103,WA,"Seattle Orthopedic Center, 2409, North 45th Street, Wallingford, Seattle, King County, Washington, 98103, United States",47.6611649,-122.0662026
165,Seattle Orthopedic Center MRI,"2409 N 45th Street Seattle, WA 98103",2409 N 45th Street,Seattle,98103,WA,"Seattle Orthopedic Center, 2409, North 45th Street, Wallingford, Seattle, King County, Washington, 98103, United States",47.6611649,-122.0662026
166,Careage Home Health Agency,"2424 156th Ave Ne Bellevue, WA 98007",2424 156th Ave Ne,Bellevue,98007,WA,"Mission Healthcare at Bellevue, 2424, 156th Avenue Northeast, Bellevue, King County, Washington, 98007, United States",47.63251515,-122.0662026
167,SNO Commercial,"2720 Commercial Ave Anacortes, WA 98221",2720 Commercial Ave,Anacortes,98221,WA,"2720, Commercial Avenue, Anacortes, Skagit County, Washington, 98221, United States",48.49987675,-122.0662026
168,PSO Gig Harbor 2727,"2727 Hollycroft St Gig Harbor, WA 98335",2727 Hollycroft St,Gig Harbor,98335,WA,"2727, Hollycroft Street, Gig Harbor, Pierce County, Washington, 98335, United States",47.309020781230856,-122.0662026
169,Providence HS And HC Sno,"2731 Wetmore Ave Everett, WA 98201",2731 Wetmore Ave,Everett,98201,WA,"2731, Wetmore Avenue, Everett, Snohomish County, Washington, 98201, United States",47.98149999189131,-122.0662026
170,Providence Home Health Svrs,"2811 South 102nd Street Tukwila, WA 98168",2811 South 102nd Street,Tukwila,98168,WA,"2811, South 102nd Street, Duwamish, Tukwila, King County, Washington, 98168, United States",47.508207,-122.0662026
171,Shoreline Health Rehab,"2818 Ne 145th St Shoreline, WA 98155",2818 Ne 145th St,Shoreline,98155,WA,"Shoreline Health and Rehabilitation Center, 2818, Northeast 145th Street, Shoreline, King County, Washington, 98155, United States",47.7341364,-122.0662026
172,PeaceHealth SJMC IP,"2901 Squalicum Pkwy Bellingham, WA 98225",2901 Squalicum Pkwy,Bellingham,98225,WA,"2901, Squalicum Parkway, Broadway Park Historic District, Cornwall Park, Bellingham, Whatcom County, Washington, 98225, United States",48.7732174,-122.0662026
173,PeaceHealth SJMC OP,"2901 Squalicum Pkwy Bellingham, WA 98225",2901 Squalicum Pkwy,Bellingham,98225,WA,"2901, Squalicum Parkway, Broadway Park Historic District, Cornwall Park, Bellingham, Whatcom County, Washington, 98225, United States",48.7732174,-122.0662026
174,Pacific Rim Orthopaedic Surgeons,"2979 Squalicum Parkway Suite 203 Bellingham, WA 98225",2979 Squalicum Parkway Suite 203,Bellingham,98225,WA,,,-122.0662026
175,PROS Walk In,"2979 Squalicum Parkway Suite 203 Bellingham, WA 98225",2979 Squalicum Parkway Suite 203,Bellingham,98225,WA,,,-122.0662026
176,Pacific Rim OP Surgery Center PROSC,"3009 Squalicum Pkwy Bellingham, WA 98225",3009 Squalicum Pkwy,Bellingham,98225,WA,"3009, Squalicum Parkway, Broadway Park Historic District, Cornwall Park, Bellingham, Whatcom County, Washington, 98225, United States",48.77236569151056,-122.0662026
177,STRB PT,"3101 Northup Way Ste 101 Bellevue, WA 98004",3101 Northup Way Ste 101,Bellevue,98004,WA,,,-122.0662026
178,PAIC Bellevue,"3101 Northup Way Ste 102 Bellevue, WA 98004",3101 Northup Way Ste 102,Bellevue,98004,WA,,,-122.0662026
179,POSM 201,"3101 Northup Way Ste 201 Bellevue, WA 98004",3101 Northup Way Ste 201,Bellevue,98004,WA,,,-122.0662026
180,STRB OT,"3101 Northup Way Ste 301 Bellevue, WA 98004",3101 Northup Way Ste 301,Bellevue,98004,WA,,,-122.0662026
181,Everett MRI Center,"3102 Colby Ave Everett, WA 98201",3102 Colby Ave,Everett,98201,WA,"3102, Colby Avenue, Port Gardner, Everett, Snohomish County, Washington, 98201, United States",47.97638193928449,-122.0662026
182,OPA Laurelhurst,"3216 Ne 45th Place Seattle, WA 98105",3216 Ne 45th Place,Seattle,98105,WA,"3216, Northeast 45th Place, East Campus, Seattle, King County, Washington, 98105, United States",47.661734,-122.0662026
183,Rehabilitation Sports and Spine Everett,"3216 Norton Ave Everett, WA 98201",3216 Norton Ave,Everett,98201,WA,"3216, Norton Avenue, Port Gardner, Everett, Snohomish County, Washington, 98201, United States",47.974795483091654,-122.0662026
184,Manor Care Gig Harbor,"3309 45th St Ct Nw Gig Harbor, WA 98335",3309 45th St Ct Nw,Gig Harbor,98335,WA,,,-122.0662026
185,OPA West Seattle,"3400 California Ave SW Seattle, WA 98116",3400 California Ave SW,Seattle,98116,WA,"3400, California Avenue Southwest, West Seattle, Seattle, King County, Washington, 98116, United States",47.5729702,-122.0662026
186,Proliance Ortho Occupational Health Svrs,"3600 Lind Ave Sw Renton, WA 98057",3600 Lind Ave Sw,Renton,98057,WA,"3600, Lind Avenue Southwest, Renton, King County, Washington, 98057, United States",47.44636445,-122.0662026
187,OPA West Seattle Alaska St,"3623 SW Alaska Street Seattle, WA 98126",3623 SW Alaska Street,Seattle,98126,WA,"3623, Southwest Alaska Street, West Seattle, Seattle, King County, Washington, 98126, United States",47.5608857,-122.0662026
188,PSHCH Pierce County,"3630 S Cedar St Tacoma, WA 98409",3630 S Cedar St,Tacoma,98409,WA,"Primary Residential Mortgage, Inc., 3630, South Cedar Street, South Tacoma, Tacoma, Pierce County, Washington, 98409, United States",47.2250177,-122.0662026
189,ProSports Imaging NW,"3801 5th St SE Puyallup, WA 98374",3801 5th St SE,Puyallup,98374,WA,"3801, 5th Street Southeast, Puyallup, Pierce County, Washington, 98374, United States",47.156526,-122.0662026
190,Rainier Orthopedic Institute Puyallup,"3801 5th St SE Puyallup, WA 98374",3801 5th St SE,Puyallup,98374,WA,"3801, 5th Street Southeast, Puyallup, Pierce County, Washington, 98374, United States",47.156526,-122.0662026
191,The Surgery Center At Rainier,"3801 5th St SE Puyallup, WA 98374",3801 5th St SE,Puyallup,98374,WA,"3801, 5th Street Southeast, Puyallup, Pierce County, Washington, 98374, United States",47.156526,-122.0662026
192,Trios Inpatient,"3810 Plaza Way Kennewick, WA 99338",3810 Plaza Way,Kennewick,99338,WA,"3810, Plaza Way, Southridge, Kennewick, Benton County, Washington, 99338, United States",46.1774669,-122.0662026
193,Trios Outpatient,"3810 Plaza Way Kennewick, WA 99338",3810 Plaza Way,Kennewick,99338,WA,"3810, Plaza Way, Southridge, Kennewick, Benton County, Washington, 99338, United States",46.1774669,-122.0662026
194,Good Samaritan Home Health,"3901 South Fife St Tacoma, WA 98409",3901 South Fife St,Tacoma,98409,WA,"3901, South Fife Street, South Tacoma, Tacoma, Pierce County, Washington, 98409, United States",47.221616,-122.0662026
195,Mountainview Vision Therapy,"3909 Creekside Loop Yakima, WA 98902",3909 Creekside Loop,Yakima,98902,WA,"Creekside Loop, Yakima, Washington, 98903, United States",46.577822,-122.0662026
196,Proliance Surgery Center At Valley,"4009 Talbot Road S Ste 200 Renton, WA 98055",4009 Talbot Road S Ste 200,Renton,98055,WA,,,-122.0662026
197,Proliance Ortho Associates,"4011 Talbot Rd S Renton, WA 98055",4011 Talbot Rd S,Renton,98055,WA,"Talbot Professional Center, 4011, Talbot Road South, Renton, King County, Washington, 98055, United States",47.443855600000006,-122.0662026
198,Valley Ortho Assoc Bone Density,"4011 Talbot Rd S Suite 300 Renton, WA 98055",4011 Talbot Rd S Suite 300,Renton,98055,WA,,,-122.0662026
199,Proliance Ortho Ambulatory Surgery Ctr,"4033 Talbot Rd S Renton, WA 98055",4033 Talbot Rd S,Renton,98055,WA,"Medical Arts Center, 4033, Talbot Road South, Renton, King County, Washington, 98055, United States",47.44422405,-122.0662026
200,South Seattle Otolaryngology Renton,"4033 Talbot Rd Ste 230 Renton, WA 98055",4033 Talbot Rd Ste 230,Renton,98055,WA,,,-122.0662026
201,Proliance Ortho Assoc ASC,"4033 Talbot Rd Suite 270 Renton, WA 98055",4033 Talbot Rd Suite 270,Renton,98055,WA,,,-122.0662026
202,Ortho Specialists/Valley Sports Med POA,"4361 Talbot Rd South Renton, WA 98055",4361 Talbot Rd South,Renton,98055,WA,"Children First Pediatrics, 4361, Talbot Road South, Renton, King County, Washington, 98055, United States",47.440036,-122.0662026
203,NW Pain Management Associates Marysville,"4404 80th St NE Marysville, WA 98270",4404 80th St NE,Marysville,98270,WA,"4404, 80th Street Northeast, Marysville, Snohomish County, Washington, 98270, United States",48.0678932,-122.0662026
204,Gig Harbor Surgery Center MC,"4545 Point Fosdick Dr NW Gig Harbor, WA 98335",4545 Point Fosdick Dr NW,Gig Harbor,98335,WA,"MultiCare Gig Harbor Urgent Care, 4545, Point Fosdick Drive Northwest, Gig Harbor, Pierce County, Washington, 98335, United States",47.29926395,-122.0662026
205,Sand Point Way Medical Center OP,"4575 Sand Point Way NE Seattle, WA 98105",4575 Sand Point Way NE,Seattle,98105,WA,"4575, Sand Point Way Northeast, Laurelhurst, Seattle, King County, Washington, 98105, United States",47.6628193,-122.0662026
206,Seattle Childrens Pulmonary,"4800 Sand Point Way NE Seattle, WA 98105",4800 Sand Point Way NE,Seattle,98105,WA,"Seattle Children's Hospital, 4800, Sand Point Way Northeast, Laurelhurst, Seattle, King County, Washington, 98105, United States",47.66311535,-122.0662026
207,Swedish Ballard ER,"5300 Tallman Ave Nw Seattle, WA 98107",5300 Tallman Ave Nw,Seattle,98107,WA,"5300, Tallman Avenue Northwest, Ballard, Seattle, King County, Washington, 98107, United States",47.6684756,-122.0662026
208,Swedish Ballard IP,"5300 Tallman Ave Nw Seattle, WA 98107",5300 Tallman Ave Nw,Seattle,98107,WA,"5300, Tallman Avenue Northwest, Ballard, Seattle, King County, Washington, 98107, United States",47.6684756,-122.0662026
209,Swedish Ballard OP,"5300 Tallman Ave Nw Seattle, WA 98107",5300 Tallman Ave Nw,Seattle,98107,WA,"5300, Tallman Avenue Northwest, Ballard, Seattle, King County, Washington, 98107, United States",47.6684756,-122.0662026
210,Swedish Medical Center Ballard,"5300 Tallman Ave Nw Seattle, WA 98107",5300 Tallman Ave Nw,Seattle,98107,WA,"5300, Tallman Avenue Northwest, Ballard, Seattle, King County, Washington, 98107, United States",47.6684756,-122.0662026
211,Orthopedic Specialists of Seattle,"5350 Tallman Ave NW Seattle, WA 98107",5350 Tallman Ave NW,Seattle,98107,WA,"Tallman Building, 5350, Tallman Avenue Northwest, Ballard, Seattle, King County, Washington, 98107, United States",47.66813755,-122.0662026
212,Swedish Ballard Primary Care,"5350 Tallman Ave NW Ste 301 Seattle, WA 98107",5350 Tallman Ave NW Ste 301,Seattle,98107,WA,,,-122.0662026
213,Kline Galland Home Health,"5950 6th Ave S Seattle, WA 98108",5950 6th Ave S,Seattle,98108,WA,"5950, 6th Avenue South, Van Asselt, Georgetown, Seattle, King County, Washington, 98108, United States",47.54976585,-122.0662026
214,Gig Harbor Surgery Center FHS,"6401 Kimball Drive Gig Harbor, WA 98335",6401 Kimball Drive,Gig Harbor,98335,WA,"6401, Kimball Drive, Harbor Heights, Gig Harbor, Pierce County, Washington, 98335, United States",47.316415,-122.0662026
215,Providence Home Health,"6410 Ne Halsey St Portland, OR 97213",6410 Ne Halsey St,Portland,97213,OR,"6410, Northeast Halsey Street, Rose City Park, Portland, Multnomah County, Oregon, 97213, United States",45.533593387755104,-122.0662026
216,Issaquah Surgery Center,"6505 226th PL SE Issaquah, WA 98027",6505 226th PL SE,Issaquah,98027,WA,"6505, 226th Place Southeast, Issaquah, King County, Washington, 98027, United States",47.543876316409545,-122.0662026
217,Proliance Ctr For OP Spine And Joint Srg,"6808 220th St Sw Ste 100 Mountlake Terrace, WA 98043",6808 220th St Sw Ste 100,Mountlake Terrace,98043,WA,,,-122.0662026
218,North Puget Sound MRI,"6808 220th St SW Ste 105 Mountlake Terrace, WA 98043",6808 220th St SW Ste 105,Mountlake Terrace,98043,WA,,,-122.0662026
219,EDOC MLT,"6808 220th St SW Ste 200 Mountlake Terrace, WA 98043",6808 220th St SW Ste 200,Mountlake Terrace,98043,WA,,,-122.0662026
220,EDOT MLT,"6808 220th St SW Ste 200 Mountlake Terrace, WA 98043",6808 220th St SW Ste 200,Mountlake Terrace,98043,WA,,,-122.0662026
221,Rehabilitation Sports and Spine MLT,"6808 220th St SW Ste 200 Mountlake Terrace, WA 98043",6808 220th St SW Ste 200,Mountlake Terrace,98043,WA,,,-122.0662026
222,NW Pain Management Associates MLT,"6808 220th St SW Ste 201 Mountlake Terrace, WA 98043",6808 220th St SW Ste 201,Mountlake Terrace,98043,WA,,,-122.0662026
223,Three Rivers ENT Kennewick,"7105 West Hood Place Kennewick, WA 99336",7105 West Hood Place,Kennewick,99336,WA,"West Hood Place, Kennewick Industrial Park, Kennewick, Benton County, Washington, 99338, United States",46.2165992,-122.0662026
224,Puget Sound Ortho CDI Xray,"7308 Bridgeport Way Lakewood, WA 98499",7308 Bridgeport Way,Lakewood,98499,WA,NULL,L,-122.0662026
225,Puget Sound Orthopaedics Lakewood,"7308 Bridgeport Way Lakewood, WA 98499",7308 Bridgeport Way,Lakewood,98499,WA,NULL,L,-122.0662026
226,Lakewood Surgery Center,"7308 Bridgeport Way W Lakewood, WA 98499",7308 Bridgeport Way W,Lakewood,98499,WA,"7308, Bridgeport Way West, Chandlewych Glen, Lakewood, Pierce County, Washington, 98499, United States",47.19063266999456,-122.0662026
227,PSSE Edmonds,"7315 212th St SW Ste 201 Edmonds, WA 98026",7315 212th St SW Ste 201,Edmonds,98026,WA,,,-122.0662026
228,Ankle And Foot Of Edmonds,"7320 216th St SW Edmonds, WA 98026",7320 216th St SW,Edmonds,98026,WA,"Edmonds Medical Pavilion, 7320, 216th Street Southwest, Edmonds, Snohomish County, Washington, 98026, United States",47.8025897,-122.0662026
229,Edmonds Ctr For Outpatient Surgery,"7320 216th St SW Edmonds, WA 98026",7320 216th St SW,Edmonds,98026,WA,"Edmonds Medical Pavilion, 7320, 216th Street Southwest, Edmonds, Snohomish County, Washington, 98026, United States",47.8025897,-122.0662026
230,Edmonds Orthopedic Center,"7320 216th St SW Edmonds, WA 98026",7320 216th St SW,Edmonds,98026,WA,"Edmonds Medical Pavilion, 7320, 216th Street Southwest, Edmonds, Snohomish County, Washington, 98026, United States",47.8025897,-122.0662026
231,Edmonds Orthopedic MRI,"7320 216th St SW Edmonds, WA 98026",7320 216th St SW,Edmonds,98026,WA,"Edmonds Medical Pavilion, 7320, 216th Street Southwest, Edmonds, Snohomish County, Washington, 98026, United States",47.8025897,-122.0662026
232,Edmonds Orthopedic Therapy,"7320 216th St SW Edmonds, WA 98026",7320 216th St SW,Edmonds,98026,WA,"Edmonds Medical Pavilion, 7320, 216th Street Southwest, Edmonds, Snohomish County, Washington, 98026, United States",47.8025897,-122.0662026
233,Rehabilitation Sports and Spine Edmonds,"7320 216th St SW Edmonds, WA 98026",7320 216th St SW,Edmonds,98026,WA,"Edmonds Medical Pavilion, 7320, 216th Street Southwest, Edmonds, Snohomish County, Washington, 98026, United States",47.8025897,-122.0662026
234,Proliance Ortho Assoc MRI,"8009 S 180th Suite 105 Kent, WA 98032",8009 S 180th Suite 105,Kent,98032,WA,,,-122.0662026
235,Proliance Eastside ENT Redmond,"8301 161st Ave NE Redmond, WA 98052",8301 161st Ave NE,Redmond,98052,WA,"Redmond Medical Center, 8301, 161st Avenue Northeast, Redmond, King County, Washington, 98052, United States",47.67712195,-122.0662026
236,Proliance Eastside ENT Redmond CT,"8301 161st Ave NE Redmond, WA 98052",8301 161st Ave NE,Redmond,98052,WA,"Redmond Medical Center, 8301, 161st Avenue Northeast, Redmond, King County, Washington, 98052, United States",47.67712195,-122.0662026
237,Snoqualmie Valley Hospital,"9575 Ethan Wade Way SE Snoqualmie, WA 98065",9575 Ethan Wade Way SE,Snoqualmie,98065,WA,"Snoqualmie Tribal Family Clinic, 9575, Ethan Wade Way SE, Snoqualmie, King County, Washington, 98065, United States",47.5143193,-122.0662026
238,Northwest Orthopedic Clinic,"9730 3rd Ave Ne Seattle, WA 98115",9730 3rd Ave Ne,Seattle,98115,WA,"9730, 3rd Avenue Northeast, Maple Leaf, Seattle, King County, Washington, 98115, United States",47.700026,-122.0662026
239,Northwest Outpatient Medical Center,"10330 Meridian Ave N Seattle, WA 98133",10330 Meridian Ave N,Seattle,98133,WA,"Northwest Outpatient Medical Center, 10330, Meridian Avenue North, Northgate, Seattle, King County, Washington, 98133, United States",47.7045914,-122.0662026
240,Kindred At Home-Bellevue,"10940 NE 33rd PL Bellevue, WA 98004",10940 NE 33rd PL,Bellevue,98004,WA,"10940, Northeast 33rd Place, Bellevue, King County, Washington, 98004, United States",47.64065251474744,-122.0662026
241,Gentiva Health Services Bellevue,"10940 Ne 33rd Pl Bellevue, WA 98004",10940 Ne 33rd Pl,Bellevue,98004,WA,"10940, Northeast 33rd Place, Bellevue, King County, Washington, 98004, United States",47.64065251474744,-122.0662026
242,St Clare Hospital IP,"11315 Bridgeport Way SW Lakewood, WA 98499",11315 Bridgeport Way SW,Lakewood,98499,WA,"Saint Clare Hospital, 11315, Bridgeport Way Southwest, Tahitian Apartments, Lakeview, Lakewood, Pierce County, Washington, 98499, United States",47.154787299999995,-122.0662026
243,St Clare Hospital OP,"11315 Bridgeport Way SW Lakewood, WA 98499",11315 Bridgeport Way SW,Lakewood,98499,WA,"Saint Clare Hospital, 11315, Bridgeport Way Southwest, Tahitian Apartments, Lakeview, Lakewood, Pierce County, Washington, 98499, United States",47.154787299999995,-122.0662026
244,St Anthony Hospital IP,"11567 Canterwood Blvd NW Gig Harbor, WA 98332",11567 Canterwood Blvd NW,Gig Harbor,98332,WA,"Saint Anthony Hospital, 11567, Canterwood Boulevard Northwest, Canterwood, Gig Harbor, Pierce County, Washington, 98332, United States",47.3640535,-122.0662026
245,St Anthony Hospital OP,"11567 Canterwood Blvd NW Gig Harbor, WA 98332",11567 Canterwood Blvd NW,Gig Harbor,98332,WA,"Saint Anthony Hospital, 11567, Canterwood Boulevard Northwest, Canterwood, Gig Harbor, Pierce County, Washington, 98332, United States",47.3640535,-122.0662026
246,Evergreen Home Health Care,"11800 Ne 128th St Kirkland, WA 98034",11800 Ne 128th St,Kirkland,98034,WA,"Totem Lake Family Medicine, 11800, Northeast 128th Street, Kirkland, King County, Washington, 98034, United States",47.7150738,-122.0662026
247,WHECC Bothell,"11801 NE 160th St Ste D Bothell, WA 98011",11801 NE 160th St Ste D,Bothell,98011,WA,"Eastside Chiropractic, 11801, Northeast 160th Street, Queensgate, Bothell, King County, Washington, 98011, United States",47.7431701,-122.0662026
248,Rainier Medical Imaging Center,"11811 NE 128th St Kirkland, WA 98034",11811 NE 128th St,Kirkland,98034,WA,"11811, Northeast 128th Street, Kirkland, King County, Washington, 98034, United States",47.7143774,-122.0662026
249,Evergreen Medical Center IP,"12040 NE 128th St Kirkland, WA 98034",12040 NE 128th St,Kirkland,98034,WA,"12040, Northeast 128th Street, Kirkland, King County, Washington, 98034, United States",47.715869,-122.0662026
250,Evergreen Medical Center OP,"12040 NE 128th St Kirkland, WA 98034",12040 NE 128th St,Kirkland,98034,WA,"12040, Northeast 128th Street, Kirkland, King County, Washington, 98034, United States",47.715869,-122.0662026
251,Evergreen Medical Ctr,"12040 NE 128th St Kirkland, WA 98034",12040 NE 128th St,Kirkland,98034,WA,"12040, Northeast 128th Street, Kirkland, King County, Washington, 98034, United States",47.715869,-122.0662026
252,ProOrtho OIL Kirkland,"12333 Ne 130th Lane Ste 400 Kirkland, WA 98034",12333 Ne 130th Lane Ste 400,Kirkland,98034,WA,,,-122.0662026
253,Proliance Eastside ENT Kirk CT,"12333 Ne 130th Lane Ste 440 Kirkland, WA 98034",12333 Ne 130th Lane Ste 440,Kirkland,98034,WA,,,-122.0662026
254,Proliance Eastside ENT Kirkland,"12333 Ne 130th Lane Ste 440 Kirkland, WA 98034",12333 Ne 130th Lane Ste 440,Kirkland,98034,WA,NULL,L,-122.0662026
255,Evergeen Surgical Center,"12333 NE 130th Lane Suite 420 Kirkland, WA 98034",12333 NE 130th Lane Suite 420,Kirkland,98034,WA,,,-122.0662026
256,Evergreen Surgical Clinic ASC,"12333 NE 130th Lane Suite 420 Kirkland, WA 98034",12333 NE 130th Lane Suite 420,Kirkland,98034,WA,,,-122.0662026
257,Evergreen Surgical Center,"12333 NE 130th Lane Suite 500 Kirkland, WA 98034",12333 NE 130th Lane Suite 500,Kirkland,98034,WA,NULL,L,-122.0662026
258,Proliance Eastside Surgery Ctr,"12911 120th Ave NE Kirkland, WA 98034",12911 120th Ave NE,Kirkland,98034,WA,NULL,L,-122.0662026
259,WhsK Kirkland,"12911 120th Ave NE Ste H10 Kirkland, WA 98034",12911 120th Ave NE Ste H10,Kirkland,98034,WA,,,-122.0662026
260,WhsK Kirkland H220,"12911 120th Ave NE Ste H220 Kirkland, WA 98034",12911 120th Ave NE Ste H220,Kirkland,98034,WA,,,-122.0662026
261,Proliance Eastside Surgery Center,"12911 120th Ave NE Suite H110 Kirkland, WA 98034",12911 120th Ave NE Suite H110,Kirkland,98034,WA,,,-122.0662026
262,Proliance Eastside MRI,"12911 120th Ave NE Suite H120 Kirkland, WA 98034",12911 120th Ave NE Suite H120,Kirkland,98034,WA,NULL,L,-122.0662026
263,ProOrtho,"12911 120th Ave NE Suite H210 Kirkland, WA 98034",12911 120th Ave NE Suite H210,Kirkland,98034,WA,NULL,L,-122.0662026
264,Puget Sound ENT Mill Creek,"13020 Meridian Ave S Everett, WA 98208",13020 Meridian Ave S,Everett,98208,WA,"Swedish Medical Center - Mill Creek, 13020, Meridian Avenue South, Everett, Snohomish County, Washington, 98208, United States",47.878748,-122.0662026
265,Swedish Millcreek,"13020 Meridian Ave S Everett, WA 98208",13020 Meridian Ave S,Everett,98208,WA,"Swedish Medical Center - Mill Creek, 13020, Meridian Avenue South, Everett, Snohomish County, Washington, 98208, United States",47.878748,-122.0662026
266,Swedish Millcreek ER,"13020 Meridian Ave S Everett, WA 98208",13020 Meridian Ave S,Everett,98208,WA,"Swedish Medical Center - Mill Creek, 13020, Meridian Avenue South, Everett, Snohomish County, Washington, 98208, United States",47.878748,-122.0662026
267,EvergreenHealth Monroe IP,"14701 179th Ave SE Monroe, WA 98272",14701 179th Ave SE,Monroe,98272,WA,"EvergreenHealth Monroe, 14701, 179th Avenue Southeast, Monroe, Snohomish County, Washington, 98272, United States",47.8642196,-122.0662026
268,Valley General Hospital IP,"14701 179th SE Monroe, WA 98272",14701 179th SE,Monroe,98272,WA,"EvergreenHealth Monroe, 14701, 179th Avenue Southeast, Monroe, Snohomish County, Washington, 98272, United States",47.8642196,-122.0662026
269,Valley General Hospital Monroe OP,"14701 179th SE Monroe, WA 98272",14701 179th SE,Monroe,98272,WA,NULL,L,-122.0662026
270,Providence Monroe,"14841 179th Ave SE Monroe, WA 98272",14841 179th Ave SE,Monroe,98272,WA,"14841, 179th Avenue Southeast, Monroe, Snohomish County, Washington, 98272, United States",47.86296972375135,-122.0662026
271,ProOrtho Monroe,"14841 179th Avenue SE Monroe, WA 98272",14841 179th Avenue SE,Monroe,98272,WA,"14841, 179th Avenue Southeast, Monroe, Snohomish County, Washington, 98272, United States",47.86296972375135,-122.0662026
272,Concept Therapy Mill Creek,"15808 Mill Creek Blvd Mill Creek, WA 98012",15808 Mill Creek Blvd,Mill Creek,98012,WA,"15808, Mill Creek Boulevard, Mill Creek, Snohomish County, Washington, 98012, United States",47.8512820953052,-122.0662026
273,Highline Medical Center ER,"16251 Sylvester Road SW Burien, WA 98166",16251 Sylvester Road SW,Burien,98166,WA,"16251, Sylvester Road Southwest, Five Corners, Burien, King County, Washington, 98166, United States",47.4578782,-122.0662026
274,Highline Medical Center IP,"16251 Sylvester Road SW Burien, WA 98166",16251 Sylvester Road SW,Burien,98166,WA,"16251, Sylvester Road Southwest, Five Corners, Burien, King County, Washington, 98166, United States",47.4578782,-122.0662026
275,Highline Medical Center OP,"16251 Sylvester Road SW Burien, WA 98166",16251 Sylvester Road SW,Burien,98166,WA,"16251, Sylvester Road Southwest, Five Corners, Burien, King County, Washington, 98166, United States",47.4578782,-122.0662026
276,Proliance Southwest Seattle Orthopedics,"16259 Sylvester Rd SW Burien, WA 98166",16259 Sylvester Rd SW,Burien,98166,WA,"Three Tree Medical Arts Building, 16259, Sylvester Road Southwest, Five Corners, Burien, King County, Washington, 98166, United States",47.4566128,-122.0662026
277,South Seattle Otolaryngology Seattle,"16259 Sylvester Rd SW Seattle, WA 98166",16259 Sylvester Rd SW,Seattle,98166,WA,NULL,L,-122.0662026
278,Concept Therapy Lynnwood,"16527 Alderwood Mall Parkway Lynnwood, WA 98037",16527 Alderwood Mall Parkway,Lynnwood,98037,WA,"Alderwood Mall Parkway, Lynnwood, Snohomish County, Washington, 98037, United States",47.8359029,-122.0662026
279,The Children and Family Eye Doctors,"17130 Avondale Way Redmond, WA 98052",17130 Avondale Way,Redmond,98052,WA,"17130, Avondale Way Northeast, Redmond, King County, Washington, 98052, United States",47.673421729906536,-122.0662026
280,Valley Medical Center Day Surgery,"17820 Talbot Rd S Renton, WA 98055",17820 Talbot Rd S,Renton,98055,WA,"Day Surgery Center, 17820, Talbot Road South, Renton, King County, Washington, 98055, United States",47.44226725,-122.0662026
281,Plastic And Reconstructive Surgeons,"17930 Talbot Road South Renton, WA 98055",17930 Talbot Road South,Renton,98055,WA,"Plastic & Reconstructive Surgeons, 17930, Talbot Road South, Renton, King County, Washington, 98055, United States",47.4413003,-122.0662026
282,Plastic And Reconstructive Surgeons ASC,"17930 Talbot Road South Renton, WA 98055",17930 Talbot Road South,Renton,98055,WA,"Plastic & Reconstructive Surgeons, 17930, Talbot Road South, Renton, King County, Washington, 98055, United States",47.4413003,-122.0662026
283,WHSR Redmond,"18100 NE Union Hill Rd Floor 2 Redmond, WA 98052",18100 NE Union Hill Rd Floor 2,Redmond,98052,WA,,,-122.0662026
284,Swedish Medical Center Redmond,"18100 NE Union Hill Rd Redmond, WA 98052",18100 NE Union Hill Rd,Redmond,98052,WA,"Swedish Hospital, 18100, Northeast Union Hill Road, Redmond, King County, Washington, 98052, United States",47.67640045,-122.0662026
285,Redmond Ambulatory Surgery Center,"18100 NE Union Hill Rd Ste 340 Redmond, WA 98052",18100 NE Union Hill Rd Ste 340,Redmond,98052,WA,,,-122.0662026
286,ProOrtho Swedish Redmond,"18100 Union Hill Road Ne Redmond, WA 98052",18100 Union Hill Road Ne,Redmond,98052,WA,,,-122.0662026
287,Concept Therapy Alderwood,"19031 33rd Ave Ste 102 Lynnwood, WA 98036",19031 33rd Ave Ste 102,Lynnwood,98036,WA,,,-122.0662026
288,Everett Bone And Joint Monroe,"19200 N Kelsey St Monroe, WA 98272",19200 N Kelsey St,Monroe,98272,WA,"Providence Monroe Family Medicine, 19200, North Kelsey Street, Monroe, Snohomish County, Washington, 98272, United States",47.8634757,-122.0662026
289,SNS Poulsbo,"20700 Bond Road NE BLGD B Ste 103 Poulsbo, WA 98370",20700 Bond Road NE BLGD B Ste 103,Poulsbo,98370,WA,,,-122.0662026
290,OPA Poulsbo,"20700 Bond Road NE Poulsbo, WA 98370",20700 Bond Road NE,Poulsbo,98370,WA,"20700, Bond Road Northeast, Poulsbo, Kitsap County, Washington, 98370, United States",47.751213,-122.0662026
291,Poulsbo EDOC,"20700 Bond Road NE Poulsbo, WA 98370",20700 Bond Road NE,Poulsbo,98370,WA,"20700, Bond Road Northeast, Poulsbo, Kitsap County, Washington, 98370, United States",47.751213,-122.0662026
292,Rainier Orthopedic Institute Bonney Lake,"20920 SR 410 E Bonney Lake, WA 98391",20920 SR 410 E,Bonney Lake,98391,WA,"Elhi Hill Road, Bonney Lake, Pierce County, Washington, 98391, United States",47.1707415,-122.0662026
293,Swedish Edmonds ER,"21601 76th Ave W Edmonds, WA 98026",21601 76th Ave W,Edmonds,98026,WA,NULL,L,-122.0662026
294,Stevens Hospital IP,"21601 76th Ave West Edmonds, WA 98026",21601 76th Ave West,Edmonds,98026,WA,NULL,L,-122.0662026
295,Stevens Hospital OP,"21601 76th Ave West Edmonds, WA 98026",21601 76th Ave West,Edmonds,98026,WA,"Swedish Medical Center Edmonds Campus, 21601, 76th Avenue West, Edmonds, Snohomish County, Washington, 98026, United States",47.80280535,-122.0662026
296,Swedish Edmonds IP,"21601 76th Ave West Edmonds, WA 98026",21601 76th Ave West,Edmonds,98026,WA,"Swedish Medical Center Edmonds Campus, 21601, 76th Avenue West, Edmonds, Snohomish County, Washington, 98026, United States",47.80280535,-122.0662026
297,Swedish Edmonds OP,"21601 76th Ave West Edmonds, WA 98026",21601 76th Ave West,Edmonds,98026,WA,"Swedish Medical Center Edmonds Campus, 21601, 76th Avenue West, Edmonds, Snohomish County, Washington, 98026, United States",47.80280535,-122.0662026
298,Puget Sound ENT Allergy Center,"21911 76th Ave W Ste 202 Edmonds, WA 98026",21911 76th Ave W Ste 202,Edmonds,98026,WA,,,-122.0662026
299,Puget Sound Ear Nose And Throat,"21911 76th Ave W Ste 211 Edmonds, WA 98026",21911 76th Ave W Ste 211,Edmonds,98026,WA,,,-122.0662026
300,Puget Sound ENT CT,"21911 76th Ave W Ste 211 Edmonds, WA 98026",21911 76th Ave W Ste 211,Edmonds,98026,WA,,,-122.0662026
301,Plastic And Rec Surg Maple Valley,"23925 255th Way SE Maple Valley, WA 98038",23925 255th Way SE,Maple Valley,98038,WA,NULL,L,-122.0662026
302,Proliance Ortho Assoc Maple Valley,"24060 Se Kent Kangley Road Maple Valley, WA 98038",24060 Se Kent Kangley Road,Maple Valley,98038,WA,"University of Washington Lifestyle Center, 24060, Southeast Kent Kangley Road, Danville, Maple Valley, King County, Washington, 98038, United States",47.3618225,-122.0662026
303,Proliance Ortho Assoc Covington,"27005 168th Place SE Ste 201 Covington, WA 98042",27005 168th Place SE Ste 201,Covington,98042,WA,,,-122.0662026
304,Proliance Ortho Assoc Covington 3,"27005 168th Place SE Ste 201 Covington, WA 98042",27005 168th Place SE Ste 201,Covington,98042,WA,,,-122.0662026
305,Proliance Ortho MRI Cov,"27005 168th Place SE Ste 301 Covington, WA 98042",27005 168th Place SE Ste 301,Covington,98042,WA,,,-122.0662026
306,Life Care At Home Of Washington,"33600 6th Ave S Federal Way, WA 98003",33600 6th Ave S,Federal Way,98003,WA,"33600, 6th Avenue South, Federal Way, King County, Washington, 98003, United States",47.29997645,-122.0662026
307,Signature Home Health,"33710 9th Ave S Federal Way, WA 98003",33710 9th Ave S,Federal Way,98003,WA,"33710, 9th Avenue South, Kitts Corner, Federal Way, King County, Washington, 98003, United States",47.2993461,-122.0662026
308,St Francis Hospital IP,"34503 9th Ave S Federal Way, WA 98003",34503 9th Ave S,Federal Way,98003,WA,"34503, 9th Avenue South, Kitts Corner, Federal Way, King County, Washington, 98003, United States",47.2929452,-122.0662026
309,St Francis Hospital OP,"34503 9th Ave S Federal Way, WA 98003",34503 9th Ave S,Federal Way,98003,WA,"34503, 9th Avenue South, Kitts Corner, Federal Way, King County, Washington, 98003, United States",47.2929452,-122.0662026
310,OPA Snoqualmie,"37624 Se Fury St Snoqualmie, WA 98065",37624 Se Fury St,Snoqualmie,98065,WA,,,-122.0662026
